GLOBALSTAR M069         
1 31573U 07020C   23293.84753045 -.00000042  00000+0  34201-3 0  9992
2 31573  51.9946 224.7763 0000737  41.4905 338.9215 12.62283703758034
GLOBALSTAR M071         
1 31576U 07020F   23293.87776895 -.00000051  00000+0  29405-3 0  9996
2 31576  52.0060 229.6647 0000243  20.7343  14.7496 12.62270548419294
GLOBALSTAR M062 [-]     
1 26082U 00008B   23293.60917094 -.00000062  00000+0  26017-3 0  9998
2 26082  51.9843  76.5295 0006054 255.9123 233.0426 12.43419367421283
GLOBALSTAR M060 [-]     
1 26083U 00008C   23293.52410034 -.00000056  00000+0  34663-3 0  9991
2 26083  52.0024 311.1102 0003486 340.1330 187.2534 12.17615534 78581
GLOBALSTAR M064 [-]     
1 26084U 00008D   23293.36875884 -.00000075  00000+0  10997-3 0  9997
2 26084  52.0064  13.0173 0001111 349.9652  10.1158 11.88510374 95060
